1 23528U 95013A   22137.74357250 -.00000115  00000-0  00000-0 0  9994
2 23528   8.9871  48.1342 0022647  52.9704 147.1120  0.98972399 98778
1 23528U 95013A   22138.24537226 -.00000101  00000-0  00000-0 0  9998
2 23528   8.9880  48.1313 0022659  53.0145 325.8648  0.98972165 98782
1 23528U 95013A   22138.67561897 -.00000089  00000-0  00000-0 0  9991
2 23528   8.9887  48.1289 0022672  53.0466 119.1342  0.98971986 98787
1 23528U 95013A   22139.67929215 -.00000063  00000-0  00000+0 0  9995
2 23528   8.9904  48.1229 0022703  53.1324 116.6679  0.98971609 98866
1 23528U 95013A   22139.67929215 -.00000063  00000-0  00000-0 0  9996
2 23528   8.9904  48.1229 0022703  53.1324 116.6679  0.98971609 98798
1 23528U 95013A   22140.68287372 -.00000038  00000-0  00000-0 0  9992
2 23528   8.9921  48.1171 0022737  53.2150 114.1700  0.98971280 98803
1 23528U 95013A   22140.75456084 -.00000036  00000-0  00000-0 0  9996
2 23528   8.9922  48.1166 0022741  53.2234 139.7043  0.98971258 98804
1 23528U 95013A   22141.68655556 -.00000013  00000-0  00000+0 0  9998
2 23528   8.9938  48.1112 0022773  53.3076 111.6969  0.98971025 98888
1 23528U 95013A   22141.68655556 -.00000014  00000-0  00000-0 0  9990
2 23528   8.9938  48.1112 0022773  53.3076 111.6969  0.98971025 98811
1 23528U 95013A   22142.76186292  .00000010  00000-0  00000-0 0  9991
2 23528   8.9957  48.1050 0022817  53.4089 134.7348  0.98970839 98827
1 23528U 95013A   22143.76549993  .00000029  00000-0  00000+0 0  9992
2 23528   8.9974  48.0994 0022858  53.5071 132.2385  0.98970755 98909
1 23528U 95013A   22143.76549993  .00000029  00000-0  00000-0 0  9993
2 23528   8.9974  48.0994 0022858  53.5071 132.2385  0.98970755 98831
1 23528U 95013A   22144.69756065  .00000043  00000-0  00000-0 0  9992
2 23528   8.9991  48.0943 0022899  53.6088 104.2356  0.98970757 98848
1 23528U 95013A   22145.77275174  .00000056  00000-0  00000-0 0  9993
2 23528   9.0010  48.0884 0022945  53.7257 127.2157  0.98970853 98859
1 23528U 95013A   22145.94209345  .00000057  00000-0  00000+0 0  9999
2 23528   9.0013  48.0875 0022952  53.7470 187.5323  0.98970883 98922
1 23528U 95013A   22145.94209345  .00000057  00000-0  00000-0 0  9990
2 23528   9.0013  48.0875 0022952  53.7470 187.5323  0.98970883 98854
1 23528U 95013A   22146.79146552  .00000062  00000-0  00000-0 0  9990
2 23528   9.0028  48.0829 0022987  53.8631 130.0528  0.98971035 98868
1 23528U 95013A   22148.82341105  .00000060  00000-0  00000+0 0  9994
2 23528   9.0063  48.0719 0023040  54.0866 133.8247  0.98971560 98951
1 23528U 95013A   22148.82341105  .00000060  00000-0  00000-0 0  9995
2 23528   9.0063  48.0719 0023041  54.0901 133.8216  0.98971570 98881
1 23528U 95013A   22150.85465832  .00000037  00000-0  00000+0 0  9998
2 23528   9.0101  48.0612 0023108  54.3866 137.2792  0.98972396 98977
1 23528U 95013A   22150.86266435  .00000037  00000-0  00000-0 0  9998
2 23528   9.0101  48.0612 0023108  54.3935 140.1256  0.98972416 98908
1 23528U 95013A   22152.89702086 -.00000001  00000-0  00000+0 0  9991
2 23528   9.0137  48.0502 0023159  54.7050 144.6803  0.98973313 98996
1 23528U 95013A   22152.89702086 -.00000001  00000-0  00000-0 0  9992
2 23528   9.0137  48.0502 0023159  54.7050 144.6803  0.98973313 98929
1 23528U 95013A   22153.30007311 -.00000010  00000-0  00000-0 0  9998
2 23528   9.0145  48.0481 0023162  54.7585 288.2402  0.98973496 98923
1 23528U 95013A   22154.30369006 -.00000033  00000-0  00000-0 0  9996
2 23528   9.0162  48.0426 0023182  54.9037 285.6998  0.98973961 98936
1 23528U 95013A   22154.80550531 -.00000045  00000-0  00000-0 0  9999
2 23528   9.0170  48.0399 0023195  54.9685 104.4411  0.98974208 98941
1 23528U 95013A   22155.30720852 -.00000058  00000-0  00000+0 0  9993
2 23528   9.0179  48.0369 0023197  55.0512 283.1247  0.98974428 99026
1 23528U 95013A   22155.30720852 -.00000058  00000-0  00000-0 0  9994
2 23528   9.0179  48.0369 0023197  55.0512 283.1247  0.98974428 98946
1 23528U 95013A   22155.89702441 -.00000072  00000-0  00000-0 0  9998
2 23528   9.0190  48.0337 0023212  55.1657 133.1729  0.98974686 98959
1 23528U 95013A   22156.88434979 -.00000097  00000-0  00000-0 0  9993
2 23528   9.0205  48.0281 0023218  55.2996 124.8427  0.98975065 98962
1 23528U 95013A   22158.38958036 -.00000133  00000-0  00000+0 0  9995
2 23528   9.0232  48.0199 0023220  55.5045 300.9847  0.98975571 99057
1 23528U 95013A   22158.38958036 -.00000133  00000-0  00000-0 0  9996
2 23528   9.0232  48.0199 0023220  55.5045 300.9847  0.98975571 98977
1 23528U 95013A   22159.39334152 -.00000155  00000-0  00000-0 0  9999
2 23528   9.0249  48.0143 0023225  55.6579 298.4949  0.98975835 98980
1 23528U 95013A   22160.39702792 -.00000175  00000-0  00000-0 0  9992
2 23528   9.0266  48.0087 0023229  55.8130 295.9777  0.98976034 98999
1 23528U 95013A   22160.39702792 -.00000175  00000-0  00000+0 0  9991
2 23528   9.0266  48.0087 0023229  55.8130 295.9777  0.98976034 99079
1 23528U 95013A   22160.97057034 -.00000186  00000-0  00000-0 0  9990
2 23528   9.0276  48.0054 0023236  55.8954 140.2626  0.98976114 99003
1 23528U 95013A   22162.40427785 -.00000211  00000-0  00000+0 0  9992
2 23528   9.0299  47.9972 0023233  56.0847 290.9396  0.98976212 99091
1 23528U 95013A   22162.40427785 -.00000210  00000-0  00000-0 0  9992
2 23528   9.0299  47.9972 0023233  56.0847 290.9396  0.98976212 99013
1 23528U 95013A   22163.40795060 -.00000224  00000-0  00000-0 0  9992
2 23528   9.0316  47.9914 0023236  56.2073 288.4519  0.98976211 99024
1 23528U 95013A   22164.41158123 -.00000236  00000-0  00000+0 0  9999
2 23528   9.0332  47.9854 0023241  56.3192 285.9593  0.98976129 99116
1 23528U 95013A   22164.41158123 -.00000236  00000-0  00000-0 0  9990
2 23528   9.0332  47.9854 0023241  56.3192 285.9593  0.98976129 99037
1 23528U 95013A   22170.50471712 -.00000226  00000-0  00000-0 0  9998
2 23528   9.0433  47.9487 0023342  56.9545 296.4516  0.98974535 99098
1 23528U 95013A   22171.50832176 -.00000210  00000-0  00000-0 0  9997
2 23528   9.0451  47.9427 0023370  57.0936 293.9137  0.98974101 99101
1 23528U 95013A   22172.08184215 -.00000199  00000-0  00000-0 0  9991
2 23528   9.0460  47.9393 0023373  57.1482 138.2149  0.98973893 99115
1 23528U 95013A   22172.58351944 -.00000190  00000-0  00000+0 0  9991
2 23528   9.0469  47.9364 0023394  57.2317 316.8877  0.98973697 99195
1 23528U 95013A   22172.58351944 -.00000189  00000-0  00000-0 0  9990
2 23528   9.0469  47.9364 0023394  57.2317 316.8877  0.98973697 99128
1 23528U 95013A   22173.08540219 -.00000179  00000-0  00000-0 0  9990
2 23528   9.0478  47.9335 0023398  57.2824 135.6669  0.98973534 99129
1 23528U 95013A   22173.58712696 -.00000168  00000-0  00000-0 0  9993
2 23528   9.0486  47.9306 0023421  57.3984 314.3217  0.98973299 99135
1 23528U 95013A   22174.08899237 -.00000157  00000-0  00000-0 0  9994
2 23528   9.0495  47.9278 0023424  57.4571 133.0864  0.98973153 99132
1 23528U 95013A   22174.59074084 -.00000145  00000-0  00000+0 0  9991
2 23528   9.0503  47.9249 0023444  57.5542 311.7698  0.98972975 99211
1 23528U 95013A   22174.59074084 -.00000145  00000-0  00000-0 0  9992
2 23528   9.0503  47.9249 0023444  57.5542 311.7698  0.98972975 99143
1 23528U 95013A   22175.09259500 -.00000133  00000-0  00000-0 0  9993
2 23528   9.0512  47.9223 0023448  57.6057 130.5354  0.98972802 99146
1 23528U 95013A   22175.59429406 -.00000121  00000-0  00000-0 0  9999
2 23528   9.0520  47.9196 0023463  57.6908 309.2125  0.98972634 99151
1 23528U 95013A   22176.52625997 -.00000099  00000-0  00000-0 0  9990
2 23528   9.0536  47.9143 0023480  57.8324 281.1407  0.98972320 99156
1 23528U 95013A   22176.59790807 -.00000097  00000-0  00000+0 0  9997
2 23528   9.0538  47.9138 0023478  57.8546 306.6472  0.98972288 99232
1 23528U 95013A   22176.59790807 -.00000097  00000-0  00000-0 0  9998
2 23528   9.0538  47.9138 0023478  57.8546 306.6472  0.98972288 99164
1 23528U 95013A   22177.09977017 -.00000085  00000-0  00000-0 0  9991
2 23528   9.0546  47.9110 0023482  57.9165 125.4043  0.98972149 99163
1 23528U 95013A   22177.60149823 -.00000073  00000-0  00000-0 0  9991
2 23528   9.0555  47.9084 0023491  58.0117 304.0805  0.98972022 99174
1 23528U 95013A   22178.10337038 -.00000061  00000-0  00000-0 0  9991
2 23528   9.0563  47.9055 0023490  58.0817 122.8321  0.98971888 99175
1 23528U 95013A   22178.60505917 -.00000050  00000-0  00000+0 0  9996
2 23528   9.0572  47.9026 0023498  58.1773 301.4928  0.98971762 99251
1 23528U 95013A   22178.60505917 -.00000050  00000-0  00000-0 0  9997
2 23528   9.0572  47.9026 0023498  58.1773 301.4928  0.98971762 99172
1 23528U 95013A   22179.10703716 -.00000039  00000-0  00000-0 0  9997
2 23528   9.0581  47.8997 0023498  58.2443 120.2847  0.98971651 99188
1 23528U 95013A   22179.68002458 -.00000026  00000-0  00000-0 0  9991
2 23528   9.0591  47.8963 0023501  58.3326 324.3577  0.98971562 99197
1 23528U 95013A   22180.51021330 -.00000009  00000-0  00000-0 0  9996
2 23528   9.0605  47.8917 0023507  58.4694 260.0234  0.98971434 99191
1 23528U 95013A   22180.68395247 -.00000006  00000-0  00000-0 0  9992
2 23528   9.0608  47.8906 0023506  58.5122 321.8845  0.98971393 99208
1 23528U 95013A   22181.48135483  .00000009  00000-0  00000-0 0  9997
2 23528   9.0622  47.8860 0023503  58.6493 245.8693  0.98971352 99203
1 23528U 95013A   22182.27717588  .00000022  00000-0  00000-0 0  9992
2 23528   9.0636  47.8813 0023502  58.7836 169.2919  0.98971314 99216
1 23528U 95013A   22183.55905538  .00000041  00000-0  00000-0 0  9999
2 23528   9.0659  47.8739 0023490  58.9954 265.8245  0.98971354 99227
1 23528U 95013A   22183.61823094  .00000041  00000-0  00000-0 0  9992
2 23528   9.0660  47.8735 0023489  59.0012 286.9036  0.98971360 99229
1 23528U 95013A   22184.17549551  .00000048  00000-0  00000-0 0  9994
2 23528   9.0670  47.8703 0023490  59.0989 125.3634  0.98971396 99230
1 23528U 95013A   22184.69828493  .00000053  00000-0  00000-0 0  9992
2 23528   9.0679  47.8672 0023479  59.1821 311.5537  0.98971436 99244
